*******************************************************************************
 Revised: Feb 05, 2022            STEREO-A Spacecraft                      -234
                              http://stereo.gsfc.nasa.gov/

 BACKGROUND:
  STEREO (Solar TErrestrial RElations Observatory) is the third mission in 
  NASA's Solar Terrestrial Probes program (STP). This two-year mission will use
  two nearly identical space-based observatories - one ahead of Earth in its 
  orbit, the other trailing behind - to provide stereoscopic measurements to 
  study the Sun and the nature of coronal mass ejections (CMEs).

 OBJECTIVES:
  * Understand the causes and mechanisms of coronal mass ejection (CME) 
     initiation.
  * Characterize the propagation of CMEs through the heliosphere.
  * Discover the mechanisms and sites of energetic particle acceleration in 
     the low corona and the interplanetary medium.
  * Improve the determination of the structure of the ambient solar wind. 

 SPACECRAFT:
  Launch (Delta II 7925-10L) = October 26, 2006 @ 1:53 UTC
  Mission end                = 2 year nominal mission after launch
  Dimensions                 = 1.14m x 1.22m (launch), 6.47m x 2.03m (deployed)
  Launch Mass                = 620 kg  (includes propellant)
  Power consumption          = 475 watts
  Data downlink              = 720 kilobits/sec
  Memory                     = 1 GB
  Attitude                   = control within 7", knowledge within 0.1"

 INSTRUMENTS (4 packages on each spacecraft):
  * Sun Earth Connection Coronal and Heliospheric Investigation (SECCHI)
  * STEREO/WAVES (SWAVES) radio burst tracker
  * In-situ Measurements of Particles and CME Transients (IMPACT)
  * PLAsma and SupraThermal Ion Composition (PLASTIC) 

 ORBIT:
  STEREO-A and STEREO-B will be launched together, then separate. The Moon's 
  gravity will be used to redirect the observatories to their appropriate 
  orbits, something the launch vehicle alone is not able to do.

  For the first three months after launch, the two observatories will fly in 
  highly elliptical orbits extending from very close to Earth to just beyond 
  the Moon's orbit. STEREO Mission Operations personnel at APL will 
  synchronize spacecraft orbits so that about two months after launch they 
  encounter the Moon, at which time one of them is close enough to use the 
  Moon's gravity to redirect it to a position "ahead"/leading the Earth. 
  Approximately one month later, the second observatory will encounter the 
  Moon again and be redirected to its orbit "behind"/trailing the Earth. 

 POST-LAUNCH SPACECRAFT TRAJECTORY: 
  Fit to tracking data until 2022-Feb-03, planning prediction thereafter.

  Trajectory name                    Start        Stop
  ---------------------------------  -----------  -----------
  ahead_2006_350_01.depm             2006-Oct-26  2006-Dec-15
  ahead_2008_037_01.depm             2006-Dec-15  2008-Jan-21
  ahead_2010_208_01.depm             2008-Jan-21  2010-Jul-16
  ahead_2012_138_01.depm             2010-Jul-16  2012-Apr-18
  ahead_2013_130_01.depm             2012-Apr-18  2013-Apr-25
  ahead_2015_219_01.depm             2013-Apr-25  2015-Jul-23
  ahead_2018_019_01.depm             2015-Jul-23  2017-Dec-21
  ahead_2020_224_01.depm             2017-Dec-21  2020-Aug-11
  ahead_2022_034_01.depm             2020-Aug-11  2022-Feb-03
  ahead_2022_034_01.epm              2022-Feb-03  2022-Jun-03
*******************************************************************************


*******************************************************************************
Ephemeris / WWW_USER Mon Feb  7 17:44:45 2022 Pasadena, USA      / Horizons    
*******************************************************************************
Target body name: STEREO-A (spacecraft) (-234)    {source: STEREO-A_merged}
Center body name: Sun (10)                        {source: DE441}
Center-site name: BODYCENTRIC
*******************************************************************************
Start time      : A.D. 2021-Jan-01 00:08:31.0000 UT      
Stop  time      : A.D. 2021-Dec-31 23:59:31.0000 UT      
Step-size       : 40 minutes
*******************************************************************************
Target pole/equ : No model available
Target radii    : (unavailable)                                                
Center geodetic : 0.00000000,0.00000000,0.0000000 {E-lon(deg),Lat(deg),Alt(km)}
Center cylindric: 0.00000000,0.00000000,0.0000000 {E-lon(deg),Dxy(km),Dz(km)}
Center pole/equ : IAU_SUN                         {East-longitude positive}
Center radii    : 696000.0 x 696000.0 x 696000.0 k{Equator, meridian, pole}    
Target primary  : Earth
Vis. interferer : None
Rel. light bend : Sun                             {source: DE441}
Rel. lght bnd GM: 1.3271E+11 km^3/s^2                                          
Atmos refraction: NO (AIRLESS)
RA format       : HMS
Time format     : CAL 
EOP file        : eop.220206.p220502                                           
EOP coverage    : DATA-BASED 1962-JAN-20 TO 2022-FEB-06. PREDICTS-> 2022-MAY-01
Units conversion: 1 au= 149597870.700 km, c= 299792.458 km/s, 1 day= 86400.0 s 
Table cut-offs 1: Elevation (-90.0deg=NO ),Airmass     n.a.    , Daylight (NO )
Table cut-offs 2: Solar elongation (  0.0,180.0=NO ),Local Hour Angle( 0.0=NO )
Table cut-offs 3: RA/DEC angular rate (     0.0=NO )                           
*******************************************************************************
 Date__(UT)__HR:MN:SS     R.A._____(ICRF)_____DEC             delta      deldot
*******************************************************************************
$$SOE
 2021-Jan-09 14:48:31     03 20 59.78 +18 23 31.4  0.96326431836696   0.1678693
 2021-Jan-09 15:28:31     03 21 06.87 +18 23 57.7  0.96326701129928   0.1678450
 2021-Jan-09 16:08:31     03 21 13.95 +18 24 23.9  0.96326970384057   0.1678206
 2021-Jan-09 16:48:31     03 21 21.03 +18 24 50.2  0.96327239599012   0.1677961
 2021-Jan-09 17:28:31     03 21 28.11 +18 25 16.4  0.96327508774728   0.1677717
 2021-Jan-09 18:08:31     03 21 35.20 +18 25 42.6  0.96327777911139   0.1677471
 2021-Jan-09 18:48:31     03 21 42.28 +18 26 08.8  0.96328047008177   0.1677226
 2021-Jan-09 19:28:31     03 21 49.37 +18 26 35.0  0.96328316065773   0.1676980
 2021-Jan-09 20:08:31     03 21 56.45 +18 27 01.2  0.96328585083854   0.1676733
 2021-Jan-09 20:48:31     03 22 03.54 +18 27 27.3  0.96328854062357   0.1676486
 2021-Jan-09 21:28:31     03 22 10.63 +18 27 53.4  0.96329123001217   0.1676239
 2021-Jan-09 22:08:31     03 22 17.72 +18 28 19.5  0.96329391900357   0.1675991
 2021-Jan-09 22:48:31     03 22 24.80 +18 28 45.6  0.96329660759717   0.1675743
 2021-Jan-09 23:28:31     03 22 31.89 +18 29 11.7  0.96329929579223   0.1675494
 2021-Jan-10 00:08:31     03 22 38.98 +18 29 37.8  0.96330198358810   0.1675245
 2021-Jan-10 00:48:31     03 22 46.07 +18 30 03.8  0.96330467098410   0.1674996
 2021-Jan-10 01:28:31     03 22 53.16 +18 30 29.9  0.96330735797957   0.1674746
 2021-Jan-10 02:08:31     03 23 00.25 +18 30 55.9  0.96331004457381   0.1674496
 2021-Jan-10 02:48:31     03 23 07.34 +18 31 21.9  0.96331273076609   0.1674245
 2021-Jan-10 03:28:31     03 23 14.44 +18 31 47.8  0.96331541655585   0.1673994
 2021-Jan-10 04:08:31     03 23 21.53 +18 32 13.8  0.96331810194226   0.1673742
 2021-Jan-10 04:48:31     03 23 28.62 +18 32 39.8  0.96332078692476   0.1673490
 2021-Jan-10 05:28:31     03 23 35.71 +18 33 05.7  0.96332347150266   0.1673238
 2021-Jan-10 06:08:31     03 23 42.81 +18 33 31.6  0.96332615567520   0.1672985
 2021-Jan-10 06:48:31     03 23 49.90 +18 33 57.5  0.96332883944180   0.1672732
 2021-Jan-10 07:28:31     03 23 57.00 +18 34 23.4  0.96333152280172   0.1672478
 2021-Jan-10 08:08:31     03 24 04.09 +18 34 49.2  0.96333420575429   0.1672224
 2021-Jan-10 08:48:31     03 24 11.19 +18 35 15.1  0.96333688829883   0.1671969
 2021-Jan-10 09:28:31     03 24 18.29 +18 35 40.9  0.96333957043464   0.1671714
 2021-Jan-10 10:08:31     03 24 25.39 +18 36 06.7  0.96334225216109   0.1671459
 2021-Jan-10 10:48:31     03 24 32.48 +18 36 32.5  0.96334493347751   0.1671203
 2021-Jan-10 11:28:31     03 24 39.58 +18 36 58.3  0.96334761438317   0.1670947
 2021-Jan-10 12:08:31     03 24 46.68 +18 37 24.0  0.96335029487742   0.1670690
 2021-Jan-10 12:48:31     03 24 53.78 +18 37 49.8  0.96335297495959   0.1670433
 2021-Jan-10 13:28:31     03 25 00.88 +18 38 15.5  0.96335565462899   0.1670176
 2021-Jan-10 14:08:31     03 25 07.98 +18 38 41.2  0.96335833388493   0.1669918
 2021-Jan-10 14:48:31     03 25 15.08 +18 39 06.9  0.96336101272670   0.1669659
 2021-Jan-10 15:28:31     03 25 22.19 +18 39 32.6  0.96336369115375   0.1669400
 2021-Jan-10 16:08:31     03 25 29.29 +18 39 58.3  0.96336636916529   0.1669141
 2021-Jan-10 16:48:31     03 25 36.39 +18 40 23.9  0.96336904676064   0.1668882
 2021-Jan-10 17:28:31     03 25 43.50 +18 40 49.5  0.96337172393915   0.1668622
 2021-Jan-10 18:08:31     03 25 50.60 +18 41 15.1  0.96337440070018   0.1668361
 2021-Jan-10 18:48:31     03 25 57.70 +18 41 40.7  0.96337707704304   0.1668100
 2021-Jan-10 19:28:31     03 26 04.81 +18 42 06.3  0.96337975296698   0.1667839
 2021-Jan-10 20:08:31     03 26 11.92 +18 42 31.9  0.96338242847144   0.1667577
 2021-Jan-10 20:48:31     03 26 19.02 +18 42 57.4  0.96338510355564   0.1667315
 2021-Jan-10 21:28:31     03 26 26.13 +18 43 22.9  0.96338777821895   0.1667053
 2021-Jan-10 22:08:31     03 26 33.24 +18 43 48.4  0.96339045246069   0.1666790
 2021-Jan-10 22:48:31     03 26 40.34 +18 44 13.9  0.96339312628020   0.1666526
 2021-Jan-10 23:28:31     03 26 47.45 +18 44 39.4  0.96339579967676   0.1666262
 2021-Jan-11 00:08:31     03 26 54.56 +18 45 04.9  0.96339847264975   0.1665998
 2021-Jan-11 00:48:31     03 27 01.67 +18 45 30.3  0.96340114519842   0.1665733
 2021-Jan-11 01:28:31     03 27 08.78 +18 45 55.7  0.96340381732216   0.1665468
 2021-Jan-11 02:08:31     03 27 15.89 +18 46 21.1  0.96340648902028   0.1665203
 2021-Jan-11 02:48:31     03 27 23.01 +18 46 46.5  0.96340916029209   0.1664937
 2021-Jan-11 03:28:31     03 27 30.12 +18 47 11.9  0.96341183113695   0.1664671
 2021-Jan-11 04:08:31     03 27 37.23 +18 47 37.3  0.96341450155413   0.1664404
 2021-Jan-11 04:48:31     03 27 44.34 +18 48 02.6  0.96341717154301   0.1664137
 2021-Jan-11 05:28:31     03 27 51.46 +18 48 27.9  0.96341984110287   0.1663869
 2021-Jan-11 06:08:31     03 27 58.57 +18 48 53.2  0.96342251023306   0.1663601
 2021-Jan-11 06:48:31     03 28 05.69 +18 49 18.5  0.96342517893287   0.1663332
 2021-Jan-11 07:28:31     03 28 12.80 +18 49 43.8  0.96342784720169   0.1663064
